[
    {
        "Altitude(m)": 553859.9954501144,
        "Argument of Periapsis(deg)": 0.006622991110713501,
        "Eccentricity": 0.0,
        "Inclination(deg)": 53.0,
        "Latitude(deg)": 3.4928405907148465,
        "Longitude(deg)": -63.39483965451248,
        "Mean Anomaly(deg)": -184.4538071324224,
        "RAAN(deg)": 219.99014336852804,
        "Satellite Name": "Starlink Shell 1 978",
        "Satellite Number": 978,
        "Semi-Major Axis(m)": 6931778.249405717,
        "Time(s)": 190
    },
    {
        "Altitude(m)": 553907.2765076193,
        "Argument of Periapsis(deg)": 0.0069715695902247375,
        "Eccentricity": 0.0,
        "Inclination(deg)": 53.0,
        "Latitude(deg)": 2.9893150946703804,
        "Longitude(deg)": -63.05822830658098,
        "Mean Anomaly(deg)": -183.8269759288657,
        "RAAN(deg)": 219.98962459845055,
        "Satellite Name": "Starlink Shell 1 978",
        "Satellite Number": 978,
        "Semi-Major Axis(m)": 6931778.249405717,
        "Time(s)": 200
    },
    {
        "Altitude(m)": 553957.3772947384,
        "Argument of Periapsis(deg)": 0.007320148069735974,
        "Eccentricity": 0.0,
        "Inclination(deg)": 53.0,
        "Latitude(deg)": 2.4856628675536987,
        "Longitude(deg)": -62.72196718000437,
        "Mean Anomaly(deg)": -183.200144725309,
        "RAAN(deg)": 219.98910582837308,
        "Satellite Name": "Starlink Shell 1 978",
        "Satellite Number": 978,
        "Semi-Major Axis(m)": 6931778.249405717,
        "Time(s)": 210
    },
    {
        "Altitude(m)": 554010.2971812033,
        "Argument of Periapsis(deg)": 0.007668726549247212,
        "Eccentricity": 0.0,
        "Inclination(deg)": 53.0,
        "Latitude(deg)": 1.9819069951401964,
        "Longitude(deg)": -62.38599834794271,
        "Mean Anomaly(deg)": -182.57331352175223,
        "RAAN(deg)": 219.98858705829562,
        "Satellite Name": "Starlink Shell 1 978",
        "Satellite Number": 978,
        "Semi-Major Axis(m)": 6931778.249405717,
        "Time(s)": 220
    },
    {
        "Altitude(m)": 554066.0341839661,
        "Argument of Periapsis(deg)": 0.00801730502875845,
        "Eccentricity": 0.0,
        "Inclination(deg)": 53.0,
        "Latitude(deg)": 1.4780705015648545,
        "Longitude(deg)": -62.050264013879215,
        "Mean Anomaly(deg)": -181.94648231819554,
        "RAAN(deg)": 219.98806828821813,
        "Satellite Name": "Starlink Shell 1 978",
        "Satellite Number": 978,
        "Semi-Major Axis(m)": 6931778.249405717,
        "Time(s)": 230
    },
    {
        "Altitude(m)": 554124.5849654432,
        "Argument of Periapsis(deg)": 0.008365883508269684,
        "Eccentricity": 0.0,
        "Inclination(deg)": 53.0,
        "Latitude(deg)": 0.9741763611197456,
        "Longitude(deg)": -61.71470598200692,
        "Mean Anomaly(deg)": -181.31965111463882,
        "RAAN(deg)": 219.98754951814064,
        "Satellite Name": "Starlink Shell 1 978",
        "Satellite Number": 978,
        "Semi-Major Axis(m)": 6931778.249405717,
        "Time(s)": 240
    },
    {
        "Altitude(m)": 554185.9448324022,
        "Argument of Periapsis(deg)": 0.008714461987780921,
        "Eccentricity": 0.0,
        "Inclination(deg)": 53.0,
        "Latitude(deg)": 0.4702475100048174,
        "Longitude(deg)": -61.379266640524996,
        "Mean Anomaly(deg)": -180.69281991108213,
        "RAAN(deg)": 219.98703074806318,
        "Satellite Name": "Starlink Shell 1 978",
        "Satellite Number": 978,
        "Semi-Major Axis(m)": 6931778.249405717,
        "Time(s)": 250
    },
    {
        "Altitude(m)": 554250.1077355515,
        "Argument of Periapsis(deg)": 0.009063040467292158,
        "Eccentricity": 0.0,
        "Inclination(deg)": 53.0,
        "Latitude(deg)": -0.03369314195664423,
        "Longitude(deg)": -61.043888432087904,
        "Mean Anomaly(deg)": -180.0659887075254,
        "RAAN(deg)": 219.98651197798569,
        "Satellite Name": "Starlink Shell 1 978",
        "Satellite Number": 978,
        "Semi-Major Axis(m)": 6931778.249405717,
        "Time(s)": 260
    },
    {
        "Altitude(m)": 554317.0662697788,
        "Argument of Periapsis(deg)": 0.009411618946803396,
        "Eccentricity": 0.0,
        "Inclination(deg)": 53.0,
        "Latitude(deg)": -0.5376226996257457,
        "Longitude(deg)": -60.708513324275735,
        "Mean Anomaly(deg)": -179.4391575039687,
        "RAAN(deg)": 219.98599320790822,
        "Satellite Name": "Starlink Shell 1 978",
        "Satellite Number": 978,
        "Semi-Major Axis(m)": 6931778.249405717,
        "Time(s)": 270
    },
    {
        "Altitude(m)": 554386.811675094,
        "Argument of Periapsis(deg)": 0.009760197426314633,
        "Eccentricity": 0.0,
        "Inclination(deg)": 53.0,
        "Latitude(deg)": -1.041518270870289,
        "Longitude(deg)": -60.37308379294958,
        "Mean Anomaly(deg)": -178.81232630041197,
        "RAAN(deg)": 219.9854744378308,
        "Satellite Name": "Starlink Shell 1 978",
        "Satellite Number": 978,
        "Semi-Major Axis(m)": 6931778.249405717,
        "Time(s)": 280
    },
    {
        "Altitude(m)": 554459.3338382378,
        "Argument of Periapsis(deg)": 0.01010877590582587,
        "Eccentricity": 0.0,
        "Inclination(deg)": 53.0,
        "Latitude(deg)": -1.5453569548870274,
        "Longitude(deg)": -60.037542292738905,
        "Mean Anomaly(deg)": -178.18549509685525,
        "RAAN(deg)": 219.9849556677533,
        "Satellite Name": "Starlink Shell 1 978",
        "Satellite Number": 978,
        "Semi-Major Axis(m)": 6931778.249405717,
        "Time(s)": 290
    },
    {
        "Altitude(m)": 554534.621294972,
        "Argument of Periapsis(deg)": 0.010457354385337106,
        "Eccentricity": 0.0,
        "Inclination(deg)": 53.0,
        "Latitude(deg)": -2.0491158305145056,
        "Longitude(deg)": -59.70183072752569,
        "Mean Anomaly(deg)": -177.55866389329856,
        "RAAN(deg)": 219.98443689767583,
        "Satellite Name": "Starlink Shell 1 978",
        "Satellite Number": 978,
        "Semi-Major Axis(m)": 6931778.249405717,
        "Time(s)": 300
    },
    {
        "Altitude(m)": 554612.6612330469,
        "Argument of Periapsis(deg)": 0.010805932864848343,
        "Eccentricity": 0.0,
        "Inclination(deg)": 53.0,
        "Latitude(deg)": -2.5527719445262633,
        "Longitude(deg)": -59.36589143379126,
        "Mean Anomaly(deg)": -176.9318326897418,
        "RAAN(deg)": 219.98391812759837,
        "Satellite Name": "Starlink Shell 1 978",
        "Satellite Number": 978,
        "Semi-Major Axis(m)": 6931778.249405717,
        "Time(s)": 310
    },
    {
        "Altitude(m)": 554693.4394958449,
        "Argument of Periapsis(deg)": 0.01115451134435958,
        "Eccentricity": 0.0,
        "Inclination(deg)": 53.0,
        "Latitude(deg)": -3.0563022998903184,
        "Longitude(deg)": -59.02966665107225,
        "Mean Anomaly(deg)": -176.30500148618512,
        "RAAN(deg)": 219.98339935752088,
        "Satellite Name": "Starlink Shell 1 978",
        "Satellite Number": 978,
        "Semi-Major Axis(m)": 6931778.249405717,
        "Time(s)": 320
    },
    {
        "Altitude(m)": 554776.9405866809,
        "Argument of Periapsis(deg)": 0.011503089823870818,
        "Eccentricity": 0.0,
        "Inclination(deg)": 53.0,
        "Latitude(deg)": -3.5596838439857863,
        "Longitude(deg)": -58.69309799239055,
        "Mean Anomaly(deg)": -175.67817028262837,
        "RAAN(deg)": 219.98288058744342,
        "Satellite Name": "Starlink Shell 1 978",
        "Satellite Number": 978,
        "Semi-Major Axis(m)": 6931778.249405717,
        "Time(s)": 330
    },
    {
        "Altitude(m)": 554863.1476738122,
        "Argument of Periapsis(deg)": 0.011851668303382053,
        "Eccentricity": 0.0,
        "Inclination(deg)": 53.0,
        "Latitude(deg)": -4.062893456765297,
        "Longitude(deg)": -58.35612742752465,
        "Mean Anomaly(deg)": -175.05133907907168,
        "RAAN(deg)": 219.98236181736593,
        "Satellite Name": "Starlink Shell 1 978",
        "Satellite Number": 978,
        "Semi-Major Axis(m)": 6931778.249405717,
        "Time(s)": 340
    },
    {
        "Altitude(m)": 554952.0425960616,
        "Argument of Periapsis(deg)": 0.012200246782893292,
        "Eccentricity": 0.0,
        "Inclination(deg)": 53.0,
        "Latitude(deg)": -4.565907938851096,
        "Longitude(deg)": -58.01869675336727,
        "Mean Anomaly(deg)": -174.42450787551493,
        "RAAN(deg)": 219.98184304728846,
        "Satellite Name": "Starlink Shell 1 978",
        "Satellite Number": 978,
        "Semi-Major Axis(m)": 6931778.249405717,
        "Time(s)": 350
    },
    {
        "Altitude(m)": 555043.6058691645,
        "Argument of Periapsis(deg)": 0.012548825262404526,
        "Eccentricity": 0.0,
        "Inclination(deg)": 53.0,
        "Latitude(deg)": -5.0687039995527705,
        "Longitude(deg)": -57.680747064237515,
        "Mean Anomaly(deg)": -173.7976766719582,
        "RAAN(deg)": 219.98132427721097,
        "Satellite Name": "Starlink Shell 1 978",
        "Satellite Number": 978,
        "Semi-Major Axis(m)": 6931778.249405717,
        "Time(s)": 360
    },
    {
        "Altitude(m)": 555137.8166927268,
        "Argument of Periapsis(deg)": 0.012897403741915765,
        "Eccentricity": 0.0,
        "Inclination(deg)": 53.0,
        "Latitude(deg)": -5.5712582447980274,
        "Longitude(deg)": -57.34221973501365,
        "Mean Anomaly(deg)": -173.17084546840152,
        "RAAN(deg)": 219.9808055071335,
        "Satellite Name": "Starlink Shell 1 978",
        "Satellite Number": 978,
        "Semi-Major Axis(m)": 6931778.249405717,
        "Time(s)": 370
    }
]